{
  "links" : {
    "next" : "https://api.nasa.gov/neo/rest/v1/feed?start_date=2002-03-16&end_date=2002-03-16&detailed=true&api_key=t0TVs3DtDT2H8Oy2Zy8m2eVrNsAVKAexjcZXUckd",
    "prev" : "https://api.nasa.gov/neo/rest/v1/feed?start_date=2002-03-14&end_date=2002-03-14&detailed=true&api_key=t0TVs3DtDT2H8Oy2Zy8m2eVrNsAVKAexjcZXUckd",
    "self" : "https://api.nasa.gov/neo/rest/v1/feed?start_date=2002-03-15&end_date=2002-03-15&detailed=true&api_key=t0TVs3DtDT2H8Oy2Zy8m2eVrNsAVKAexjcZXUckd"
  },
  "element_count" : 6,
  "near_earth_objects" : {
    "2002-03-15" : [ {
      "links" : {
        "self" : "https://api.nasa.gov/neo/rest/v1/neo/3114105?api_key=t0TVs3DtDT2H8Oy2Zy8m2eVrNsAVKAexjcZXUckd"
      },
      "neo_reference_id" : "3114105",
      "name" : "(2002 EA)",
      "nasa_jpl_url" : "http://ssd.jpl.nasa.gov/sbdb.cgi?sstr=3114105",
      "absolute_magnitude_h" : 22.4,
      "estimated_diameter" : {
        "kilometers" : {
          "estimated_diameter_min" : 0.0880146521,
          "estimated_diameter_max" : 0.1968067451
        },
        "meters" : {
          "estimated_diameter_min" : 88.0146520901,
          "estimated_diameter_max" : 196.8067450894
        },
        "miles" : {
          "estimated_diameter_min" : 0.0546897524,
          "estimated_diameter_max" : 0.122290004
        },
        "feet" : {
          "estimated_diameter_min" : 288.7619911632,
          "estimated_diameter_max" : 645.6914415591
        }
      },
      "is_potentially_hazardous_asteroid" : false,
      "close_approach_data" : [ {
        "close_approach_date" : "2002-03-15",
        "epoch_date_close_approach" : 1016179200000,
        "relative_velocity" : {
          "kilometers_per_second" : "12.1611552658",
          "kilometers_per_hour" : "43780.1589570344",
          "miles_per_hour" : "27203.288214164"
        },
        "miss_distance" : {
          "astronomical" : "0.0559664304",
          "lunar" : "21.7709407806",
          "kilometers" : "8372458.5",
          "miles" : "5202404.5"
        },
        "orbiting_body" : "Earth"
      } ],
      "orbital_data" : {
        "orbit_id" : "7",
        "orbit_determination_date" : "2017-04-06 09:15:24",
        "orbit_uncertainty" : "8",
        "minimum_orbit_intersection" : ".03561",
        "jupiter_tisserand_invariant" : "4.691",
        "epoch_osculation" : "2452339.5",
        "eccentricity" : ".4230415932426637",
        "semi_major_axis" : "1.377661080292424",
        "inclination" : "11.29106430009123",
        "ascending_node_longitude" : "342.4762279433206",
        "orbital_period" : "590.6252519856611",
        "perihelion_distance" : ".7948531419371079",
        "perihelion_argument" : "262.8278509906355",
        "aphelion_distance" : "1.960469018647741",
        "perihelion_time" : "2452401.007648431660",
        "mean_anomaly" : "322.5096398080603",
        "mean_motion" : ".6095235494752261",
        "equinox" : "J2000"
      }
    }, {
      "links" : {
        "self" : "https://api.nasa.gov/neo/rest/v1/neo/2163250?api_key=t0TVs3DtDT2H8Oy2Zy8m2eVrNsAVKAexjcZXUckd"
      },
      "neo_reference_id" : "2163250",
      "name" : "163250 (2002 GH1)",
      "nasa_jpl_url" : "http://ssd.jpl.nasa.gov/sbdb.cgi?sstr=2163250",
      "absolute_magnitude_h" : 15.5,
      "estimated_diameter" : {
        "kilometers" : {
          "estimated_diameter_min" : 2.1113244479,
          "estimated_diameter_max" : 4.7210649881
        },
        "meters" : {
          "estimated_diameter_min" : 2111.3244478971,
          "estimated_diameter_max" : 4721.0649880552
        },
        "miles" : {
          "estimated_diameter_min" : 1.3119157835,
          "estimated_diameter_max" : 2.9335328727
        },
        "feet" : {
          "estimated_diameter_min" : 6926.9177016389,
          "estimated_diameter_max" : 15489.0588554111
        }
      },
      "is_potentially_hazardous_asteroid" : false,
      "close_approach_data" : [ {
        "close_approach_date" : "2002-03-15",
        "epoch_date_close_approach" : 1016179200000,
        "relative_velocity" : {
          "kilometers_per_second" : "20.5867244896",
          "kilometers_per_hour" : "74112.2081624995",
          "miles_per_hour" : "46050.4440107487"
        },
        "miss_distance" : {
          "astronomical" : "0.3978671522",
          "lunar" : "154.770324707",
          "kilometers" : "59520076",
          "miles" : "36984060"
        },
        "orbiting_body" : "Earth"
      } ],
      "orbital_data" : {
        "orbit_id" : "117",
        "orbit_determination_date" : "2017-08-25 06:19:43",
        "orbit_uncertainty" : "0",
        "minimum_orbit_intersection" : ".250766",
        "jupiter_tisserand_invariant" : "2.926",
        "epoch_osculation" : "2458000.5",
        "eccentricity" : ".5397168348296193",
        "semi_major_axis" : "2.689658880592818",
        "inclination" : "35.0223169525111",
        "ascending_node_longitude" : "170.3144682936374",
        "orbital_period" : "1611.180630515733",
        "perihelion_distance" : "1.238004702787886",
        "perihelion_argument" : "350.9843239183951",
        "aphelion_distance" : "4.141313058397751",
        "perihelion_time" : "2458803.450355428140",
        "mean_anomaly" : "180.589869019464",
        "mean_motion" : ".2234386344905135",
        "equinox" : "J2000"
      }
    }, {
      "links" : {
        "self" : "https://api.nasa.gov/neo/rest/v1/neo/2191094?api_key=t0TVs3DtDT2H8Oy2Zy8m2eVrNsAVKAexjcZXUckd"
      },
      "neo_reference_id" : "2191094",
      "name" : "191094 (2002 EA3)",
      "nasa_jpl_url" : "http://ssd.jpl.nasa.gov/sbdb.cgi?sstr=2191094",
      "absolute_magnitude_h" : 20.1,
      "estimated_diameter" : {
        "kilometers" : {
          "estimated_diameter_min" : 0.2538370294,
          "estimated_diameter_max" : 0.5675968529
        },
        "meters" : {
          "estimated_diameter_min" : 253.8370293645,
          "estimated_diameter_max" : 567.5968528656
        },
        "miles" : {
          "estimated_diameter_min" : 0.1577269688,
          "estimated_diameter_max" : 0.3526882241
        },
        "feet" : {
          "estimated_diameter_min" : 832.7986794202,
          "estimated_diameter_max" : 1862.1944587557
        }
      },
      "is_potentially_hazardous_asteroid" : false,
      "close_approach_data" : [ {
        "close_approach_date" : "2002-03-15",
        "epoch_date_close_approach" : 1016179200000,
        "relative_velocity" : {
          "kilometers_per_second" : "23.8730637937",
          "kilometers_per_hour" : "85943.029657235",
          "miles_per_hour" : "53401.6564000747"
        },
        "miss_distance" : {
          "astronomical" : "0.0783875228",
          "lunar" : "30.4927463531",
          "kilometers" : "11726606",
          "miles" : "7286575.5"
        },
        "orbiting_body" : "Earth"
      } ],
      "orbital_data" : {
        "orbit_id" : "24",
        "orbit_determination_date" : "2017-04-06 09:25:41",
        "orbit_uncertainty" : "0",
        "minimum_orbit_intersection" : ".0812265",
        "jupiter_tisserand_invariant" : "3.289",
        "epoch_osculation" : "2458000.5",
        "eccentricity" : ".6415242950756791",
        "semi_major_axis" : "2.114619238494918",
        "inclination" : "32.16736490249038",
        "ascending_node_longitude" : "349.4489787829465",
        "orbital_period" : "1123.173104831933",
        "perihelion_distance" : ".7580396221659964",
        "perihelion_argument" : "259.3453859023488",
        "aphelion_distance" : "3.471198854823839",
        "perihelion_time" : "2458011.938525478098",
        "mean_anomaly" : "356.3337181469178",
        "mean_motion" : ".3205204954171947",
        "equinox" : "J2000"
      }
    } ]
  }
}